TDRS 3                  
1 19548U 88091B   17099.00000000 -.00000316  00000-0  00000-0 0  9990
2 19548  14.6629   8.7843 0039838 313.9388 172.3496  1.00257682 91714
SKYNET 4C               
1 20776U 90079A   17096.41251988  .00000108  00000-0  00000-0 0  9997
2 20776  13.7974  16.8320 0003638 344.2067  15.7455  1.00272840 97266
TDRS 5                  
1 21639U 91054B   17099.68427994  .00000072  00000-0  00000-0 0  9994
2 21639  14.3333  22.1436 0026382 345.6427 268.9222  1.00277257 94061
TDRS 6                  
1 22314U 93003B   17099.46149212 -.00000307  00000-0  00000-0 0  9993
2 22314  13.8554  25.0590 0007062 308.3005 344.9040  1.00271691 88721
INTELSAT 701 (IS-701)   
1 22871U 93066A   17099.73243778 -.00000237  00000-0  00000-0 0  9994
2 22871   4.0685  67.3635 0004195 310.2853  54.6781  1.00272079 85772
ASTRA 1D                
1 23331U 94070A   17099.26493767 -.00000305  00000-0  00000-0 0  9991
2 23331   7.4592  49.7772 0003715 317.1400 238.8712  1.00272101 82633
BRASILSAT B2            
1 23536U 95016A   17099.27726834 -.00000297  00000-0  00000-0 0  9994
2 23536   7.0854  51.6571 0002699 332.0983 205.7646  1.00270834 80669
AMSC 1                  
1 23553U 95019A   17098.85127130 -.00000132  00000-0  00000-0 0  9991
2 23553   9.9973  40.4886 0004721 340.6821  19.2661  1.00272841 80520
TDRS 7                  
1 23613U 95035B   17099.05199736 -.00000213  00000-0  00000-0 0  9990
2 23613  14.9480  15.8500 0032127 357.8206 286.4764  1.00292312 79494
ECHOSTAR 1              
1 23754U 95073A   17099.49791326 -.00000265  00000-0  00000-0 0  9996
2 23754   0.6692  90.3911 0002936 283.4874 286.0400  1.00272360 77796
INMARSAT 3-F1           
1 23839U 96020A   17099.91003042 -.00000012  00000-0  00000-0 0  9991
2 23839   3.8561  67.8001 0005876 314.4457 208.1865  1.00273412 76672
ASTRA 1F                
1 23842U 96021A   17099.81716057  .00000115  00000-0  00000-0 0  9995
2 23842   0.0535  15.6729 0004203 357.8590 163.1700  1.00271426 18707
MSAT M1                 
1 23846U 96022A   17098.88740400 -.00000102  00000-0  00000-0 0  9992
2 23846   7.6486  49.3153 0005302 329.8272  30.1369  1.00272043 76761
INMARSAT 3-F2           
1 24307U 96053A   17099.83188361 -.00000146  00000-0  00000-0 0  9995
2 24307   2.4890  78.0232 0006725 286.2525 117.9595  1.00272025 75359
AMC-1 (GE-1)            
1 24315U 96054A   17099.04943382  .00000034  00000-0  00000-0 0  9995
2 24315   1.4257  85.3408 0003166 300.2533  60.5220  1.00271976 12670
AFRICASAT-2 (MEASAT-2)  
1 24653U 96063B   17099.24610676 -.00000245  00000-0  00000-0 0  9994
2 24653   7.3808  50.1969 0006961 196.1938 187.8696  1.00273514 74703
EUTELSAT 48A            
1 24665U 96067A   17099.00499655  .00000094  00000-0  00000-0 0  9998
2 24665   6.2473  55.5615 0005635 315.6357 236.2791  1.00273530 75028
INMARSAT 3-F3           
1 24674U 96070A   17099.56706708  .00000015  00000-0  00000-0 0  9996
2 24674   3.2987  72.0772 0006048 308.5954 199.5550  1.00270645 74326
AMC-2 (GE-2)            
1 24713U 97002A   17099.53920196 -.00000231  00000-0  00000-0 0  9993
2 24713   4.2118  66.2862 0005401 313.3483 287.6010  1.00273290 24677
INTELSAT 26 (IS-26)     
1 24732U 97007A   17099.01090920 -.00000016  00000-0  00000-0 0  9996
2 24732   7.3560  50.5234 0005086 349.3848 225.6874  1.00273303 73629
GALAXY 25 (G-25)        
1 24812U 97026A   17098.71095281 -.00000189  00000-0  00000-0 0  9998
2 24812   0.0127 237.2542 0003415 141.3296 341.4145  1.00271614 72714
ABS-3                   
1 24901U 97042A   17099.90064378 -.00000212  00000-0  00000-0 0  9997
2 24901   4.7653  63.6378 0008561 309.5118 234.7688  1.00276357 71909
INTELSAT 5 (IS-5)       
1 24916U 97046A   17099.21375840 -.00000163  00000-0  00000-0 0  9995
2 24916   3.4131  71.4149 0003426 301.1571  59.0246  1.00272024 71973
AMC-3 (GE-3)            
1 24936U 97050A   17099.50466233 -.00000284  00000-0  00000-0 0  9995
2 24936   0.2373  91.5023 0002879 279.5906 296.5023  1.00272782 71795
NSS-5                   
1 24957U 97053A   17099.88868823  .00000089  00000-0  00000-0 0  9995
2 24957   3.7091  69.6229 0004071 307.3947 191.7081  1.00269651 71531
ECHOSTAR 3              
1 25004U 97059A   17098.84861501 -.00000307  00000-0  00000-0 0  9990
2 25004   2.0159  80.4920 0001340 292.6063  67.8914  1.00271754 71403
JCSAT-1B                
1 25067U 97075A   17099.63039677 -.00000226  00000-0  00000-0 0  9996
2 25067   5.4423  59.3299 0004460 291.3333 224.3347  1.00272343 70908
ASTRA 1G                
1 25071U 97076A   17099.88868823  .00000086  00000-0  00000-0 0  9995
2 25071   2.1851  78.6119 0003355 295.6913 194.9987  1.00272110 70915
BRASILSAT B3            
1 25152U 98006A   17098.81871968 -.00000305  00000-0  00000-0 0  9990
2 25152   3.9039  68.6649 0003062 317.3167  42.8280  1.00270556 70275
INMARSAT 3-F5           
1 25153U 98006B   17099.29884517 -.00000310  00000-0  00000-0 0  9994
2 25153   2.4405  74.2887 0005194 300.1805 236.8330  1.00274456 70231
NSS-806                 
1 25239U 98014A   17099.44771538 -.00000304  00000-0  00000-0 0  9996
2 25239   0.0709  43.1247 0004832 334.0133 294.4162  1.00270309 70001
CHINASAT 5A (ZX 5A)     
1 25354U 98033A   17099.69775902 -.00000376  00000-0  00000-0 0  9990
2 25354   1.0988  87.4582 0003419 243.6718 243.6663  1.00276335 73590
THOR III                
1 25358U 98035A   17098.62995037 -.00000065  00000-0  00000-0 0  9996
2 25358   5.3074  59.4836 0002295 314.9037  45.1456  1.00272219 69198
INTELSAT 805 (IS-805)   
1 25371U 98037A   17099.73627951 -.00000055  00000-0  00000-0 0  9992
2 25371   0.0435  77.1789 0003483 315.1677 239.8723  1.00272938 68908
ASTRA 2A                
1 25462U 98050A   17099.76668736 -.00000383  00000-0  00000-0 0  9991
2 25462   0.0357 225.5226 0002549 150.2591 211.8988  1.00270564 12705
AFRISTAR                
1 25515U 98063A   17099.69285366  .00000103  00000-0  00000-0 0  9999
2 25515   3.1692  69.8707 0004054 311.5946  87.1190  1.00268625 67481
JCSAT-4A                
1 25630U 99006A   17099.90055993 -.00000178  00000-0  00000-0 0  9993
2 25630   2.1563  80.3338 0002169 309.0188 215.1028  1.00271772 16965
SKYNET 4E               
1 25639U 99009B   17098.96329403  .00000005  00000-0  00000-0 0  9998
2 25639  10.0733  29.1354 0002593 349.5692 171.4789  1.00275624 66367
ASIASAT 3S              
1 25657U 99013A   17099.80665020 -.00000258  00000-0  00000-0 0  9996
2 25657   2.3705  78.5807 0003300 299.7899 256.2941  1.00271587 66178
NIMIQ 1                 
1 25740U 99027A   17099.50952400 -.00000223  00000-0  00000-0 0  9994
2 25740   0.0308 274.4110 0006383 102.6019 277.8322  1.00271157 65465
ASTRA 1H                
1 25785U 99033A   17099.83336247  .00000117  00000-0  00000-0 0  9992
2 25785   3.6934  69.7751 0002591 299.9621 172.0594  1.00276023 17775
TELKOM 1                
1 25880U 99042A   17099.77012014 -.00000369  00000-0  00000-0 0  9994
2 25880   0.0146 167.5791 0001899 217.5006 198.3733  1.00270652 64715
ABS-7                   
1 25894U 99046A   17099.76411854 -.00000387  00000-0  00000-0 0  9997
2 25894   0.0102 223.7279 0002496 149.1414 216.5062  1.00273460 63486
ABS-6                   
1 25924U 99053A   17099.00982007 -.00000146  00000-0  00000-0 0  9992
2 25924   0.0438  79.2252 0002801 311.5616 329.2159  1.00271767 64237
TELSTAR 12 (ORION 2)    
1 25949U 99059A   17099.52537014 -.00000086  00000-0  00000-0 0  9999
2 25949   0.7913  88.9420 0003207 288.1726 260.7718  1.00272153 63885
AMC-4 (GE-4)            
1 25954U 99060A   17098.63873440 -.00000300  00000-0  00000-0 0  9993
2 25954   0.0690  80.9180 0002444 335.5678 303.5231  1.00272011 10089
GALAXY 11 (G-11)        
1 26038U 99071A   17099.13437517  .00000111  00000-0  00000-0 0  9995
2 26038   0.0264  69.5264 0001982 300.5627 280.7627  1.00270444 63449
HISPASAT 1C             
1 26071U 00007A   17099.52859309 -.00000236  00000-0  00000-0 0  9992
2 26071   0.4234  88.3657 0009488 295.0636 281.0698  1.00271509 13999
SUPERBIRD-B2            
1 26095U 00012A   17099.62127723 -.00000117  00000-0  00000-0 0  9991
2 26095   0.2553  95.2400 0003167 283.1754 205.2457  1.00271871 62781
ASIASTAR                
1 26107U 00016A   17099.90114691 -.00000355  00000-0  00000-0 0  9994
2 26107   1.5340  82.0193 0004660 298.7104 247.0110  1.00271191 62286
EUTELSAT 16C            
1 26243U 00019A   17099.83260017  .00000072  00000-0  00000-0 0  9999
2 26243   4.1387  66.6590 0002801 312.1941 133.6262  1.00273350 62109
EUTELSAT 80A            
1 26369U 00028A   17099.90052182 -.00000165  00000-0  00000-0 0  9992
2 26369   0.8731  84.9173 0004672 328.7011 189.3864  1.00273219 61797
TDRS 8                  
1 26388U 00034A   17099.35935039 -.00000247  00000-0  00000-0 0  9991
2 26388   7.3790  56.4128 0005865 252.2520 107.6952  1.00268610 61532
ECHOSTAR 6              
1 26402U 00038A   17099.62567263 -.00000168  00000-0  00000-0 0  9994
2 26402   4.0573  67.4442 0003888 310.0731 309.5555  1.00272735 61291
INTELSAT 9 (IS-9)       
1 26451U 00043A   17099.18660458 -.00000293  00000-0  00000-0 0  9994
2 26451   3.3999  71.6436 0002999 302.6377 207.4091  1.00272106 10493
BRASILSAT B4            
1 26469U 00046A   17098.94659679 -.00000194  00000-0  00000-0 0  9992
2 26469   1.5194  85.4334 0003400 298.6305  62.0897  1.00270395 61316
NILESAT 102             
1 26470U 00046B   17099.83208181 -.00000081  00000-0  00000-0 0  9996
2 26470   1.5391  83.8877 0004941 285.9486 120.9447  1.00273045 11552
ASTRA 2B                
1 26494U 00054A   17099.92479830  .00000098  00000-0  00000-0 0  9999
2 26494   2.0730  79.2484 0005459 312.0338 159.3714  1.00274044 13248
AMC-7 (GE-7)            
1 26495U 00054B   17098.82702356  .00000061  00000-0  00000-0 0  9990
2 26495   0.0724  83.7587 0001486 243.9111  32.3072  1.00271805 60590
